TRITON-1                
1 39427U 13066M   26069.00891635  .00003065  00000+0  37394-3 0  9998
2 39427  97.8288 341.0923 0090141 196.6840 163.1403 14.81201223659406
FORMOSAT 7-2            
1 44351U 19036N   26068.46036694  .00003823  00000+0  30629-3 0  9994
2 44351  23.9982 100.9036 0000971  99.0828 260.9782 14.96019264368636
